{
  "links" : {
    "next" : "https://api.nasa.gov/neo/rest/v1/feed?start_date=2015-09-09&end_date=2015-09-09&detailed=true&api_key=t0TVs3DtDT2H8Oy2Zy8m2eVrNsAVKAexjcZXUckd",
    "prev" : "https://api.nasa.gov/neo/rest/v1/feed?start_date=2015-09-07&end_date=2015-09-07&detailed=true&api_key=t0TVs3DtDT2H8Oy2Zy8m2eVrNsAVKAexjcZXUckd",
    "self" : "https://api.nasa.gov/neo/rest/v1/feed?start_date=2015-09-08&end_date=2015-09-08&detailed=true&api_key=t0TVs3DtDT2H8Oy2Zy8m2eVrNsAVKAexjcZXUckd"
  },
  "element_count" : 11,
  "near_earth_objects" : {
    "2015-09-08" : [ {
      "links" : {
        "self" : "https://api.nasa.gov/neo/rest/v1/neo/3726710?api_key=t0TVs3DtDT2H8Oy2Zy8m2eVrNsAVKAexjcZXUckd"
      },
      "neo_reference_id" : "3726710",
      "name" : "(2015 RC)",
      "nasa_jpl_url" : "http://ssd.jpl.nasa.gov/sbdb.cgi?sstr=3726710",
      "absolute_magnitude_h" : 24.3,
      "estimated_diameter" : {
        "kilometers" : {
          "estimated_diameter_min" : 0.0366906138,
          "estimated_diameter_max" : 0.0820427065
        },
        "meters" : {
          "estimated_diameter_min" : 36.6906137531,
          "estimated_diameter_max" : 82.0427064882
        },
        "miles" : {
          "estimated_diameter_min" : 0.0227984834,
          "estimated_diameter_max" : 0.0509789586
        },
        "feet" : {
          "estimated_diameter_min" : 120.3760332259,
          "estimated_diameter_max" : 269.1689931548
        }
      },
      "is_potentially_hazardous_asteroid" : false,
      "close_approach_data" : [ {
        "close_approach_date" : "2015-09-08",
        "epoch_date_close_approach" : 1441695600000,
        "relative_velocity" : {
          "kilometers_per_second" : "19.4850295263",
          "kilometers_per_hour" : "70146.1062945922",
          "miles_per_hour" : "43586.0625473259"
        },
        "miss_distance" : {
          "astronomical" : "0.0269230459",
          "lunar" : "10.4730644226",
          "kilometers" : "4027630.25",
          "miles" : "2502653.5"
        },
        "orbiting_body" : "Earth"
      } ],
      "orbital_data" : {
        "orbit_id" : "5",
        "orbit_determination_date" : "2017-04-06 08:32:14",
        "orbit_uncertainty" : "7",
        "minimum_orbit_intersection" : ".0261237",
        "jupiter_tisserand_invariant" : "3.130",
        "epoch_osculation" : "2458000.5",
        "eccentricity" : ".6212872878634408",
        "semi_major_axis" : "2.37570814169521",
        "inclination" : "27.4948145168215",
        "ascending_node_longitude" : "163.2642896951017",
        "orbital_period" : "1337.482338727811",
        "perihelion_distance" : ".8997108735862982",
        "perihelion_argument" : "229.5922770924639",
        "aphelion_distance" : "3.851705409804122",
        "perihelion_time" : "2458647.994190018920",
        "mean_anomaly" : "185.718888648257",
        "mean_motion" : ".2691624327110185",
        "equinox" : "J2000"
      }
    }, {
      "links" : {
        "self" : "https://api.nasa.gov/neo/rest/v1/neo/2465633?api_key=t0TVs3DtDT2H8Oy2Zy8m2eVrNsAVKAexjcZXUckd"
      },
      "neo_reference_id" : "2465633",
      "name" : "465633 (2009 JR5)",
      "nasa_jpl_url" : "http://ssd.jpl.nasa.gov/sbdb.cgi?sstr=2465633",
      "absolute_magnitude_h" : 20.3,
      "estimated_diameter" : {
        "kilometers" : {
          "estimated_diameter_min" : 0.2315021222,
          "estimated_diameter_max" : 0.5176544822
        },
        "meters" : {
          "estimated_diameter_min" : 231.5021222103,
          "estimated_diameter_max" : 517.6544821978
        },
        "miles" : {
          "estimated_diameter_min" : 0.1438487052,
          "estimated_diameter_max" : 0.3216554833
        },
        "feet" : {
          "estimated_diameter_min" : 759.5214226325,
          "estimated_diameter_max" : 1698.3415313737
        }
      },
      "is_potentially_hazardous_asteroid" : true,
      "close_approach_data" : [ {
        "close_approach_date" : "2015-09-08",
        "epoch_date_close_approach" : 1441695600000,
        "relative_velocity" : {
          "kilometers_per_second" : "18.1279545959",
          "kilometers_per_hour" : "65260.6365451273",
          "miles_per_hour" : "40550.4216354987"
        },
        "miss_distance" : {
          "astronomical" : "0.3027479633",
          "lunar" : "117.7689590454",
          "kilometers" : "45290452",
          "miles" : "28142182"
        },
        "orbiting_body" : "Earth"
      } ],
      "orbital_data" : {
        "orbit_id" : "32",
        "orbit_determination_date" : "2017-04-06 09:19:31",
        "orbit_uncertainty" : "0",
        "minimum_orbit_intersection" : ".0239052",
        "jupiter_tisserand_invariant" : "5.071",
        "epoch_osculation" : "2458000.5",
        "eccentricity" : ".3514103935691205",
        "semi_major_axis" : "1.252508636308015",
        "inclination" : "3.948472010266107",
        "ascending_node_longitude" : "128.2314003402351",
        "orbital_period" : "511.9994807373566",
        "perihelion_distance" : ".8123640834742931",
        "perihelion_argument" : "309.8704472076857",
        "aphelion_distance" : "1.692653189141737",
        "perihelion_time" : "2457842.628353229952",
        "mean_anomaly" : "111.0036142133737",
        "mean_motion" : ".7031257130994462",
        "equinox" : "J2000"
      }
    }, {
      "links" : {
        "self" : "https://api.nasa.gov/neo/rest/v1/neo/3359445?api_key=t0TVs3DtDT2H8Oy2Zy8m2eVrNsAVKAexjcZXUckd"
      },
      "neo_reference_id" : "3359445",
      "name" : "(2006 WO1)",
      "nasa_jpl_url" : "http://ssd.jpl.nasa.gov/sbdb.cgi?sstr=3359445",
      "absolute_magnitude_h" : 19.2,
      "estimated_diameter" : {
        "kilometers" : {
          "estimated_diameter_min" : 0.3841978911,
          "estimated_diameter_max" : 0.8590926012
        },
        "meters" : {
          "estimated_diameter_min" : 384.1978910643,
          "estimated_diameter_max" : 859.0926012318
        },
        "miles" : {
          "estimated_diameter_min" : 0.2387294278,
          "estimated_diameter_max" : 0.5338152287
        },
        "feet" : {
          "estimated_diameter_min" : 1260.4918089193,
          "estimated_diameter_max" : 2818.5453698252
        }
      },
      "is_potentially_hazardous_asteroid" : false,
      "close_approach_data" : [ {
        "close_approach_date" : "2015-09-08",
        "epoch_date_close_approach" : 1441695600000,
        "relative_velocity" : {
          "kilometers_per_second" : "3.8099288172",
          "kilometers_per_hour" : "13715.7437420279",
          "miles_per_hour" : "8522.4297712617"
        },
        "miss_distance" : {
          "astronomical" : "0.346012174",
          "lunar" : "134.598739624",
          "kilometers" : "51762684",
          "miles" : "32163842"
        },
        "orbiting_body" : "Earth"
      } ],
      "orbital_data" : {
        "orbit_id" : "53",
        "orbit_determination_date" : "2017-04-06 09:07:36",
        "orbit_uncertainty" : "0",
        "minimum_orbit_intersection" : ".336265",
        "jupiter_tisserand_invariant" : "3.104",
        "epoch_osculation" : "2458000.5",
        "eccentricity" : ".5291161623581504",
        "semi_major_axis" : "2.760408291421806",
        "inclination" : "9.409228968623623",
        "ascending_node_longitude" : "223.4910741322306",
        "orbital_period" : "1675.168167513087",
        "perihelion_distance" : "1.299831649723081",
        "perihelion_argument" : "113.893604110359",
        "aphelion_distance" : "4.220984933120531",
        "perihelion_time" : "2457259.907048699690",
        "mean_anomaly" : "159.1562373489458",
        "mean_motion" : ".2149037971121712",
        "equinox" : "J2000"
      }
    } ]
  }
}